QIANFAN-52              
1 62253U 24232S   26065.79167103  .00000079  00000+0  10345-3 0  9995
2 62253  89.0056  32.6232 0014001 316.1520  43.8519 13.51000952 79293
QIANFAN-53              
1 62254U 24232T   26065.84512794  .00000090  00000+0  12033-3 0  9991
2 62254  89.0063  32.7286 0012923 317.8026  42.2129 13.51003727 79262
QIANFAN-54              
1 62255U 24232U   26065.88630955  .00000089  00000+0  11909-3 0  9995
2 62255  89.0055  32.3956 0003028  37.4067 322.7294 13.51003150110771
QIANFAN-55              
1 62785U 25016A   26065.83830528  .00000040  00000+0  43538-4 0  9998
2 62785  88.9691  94.5083 0019460 104.5787 255.7524 13.50996368 58544
QIANFAN-56              
1 62786U 25016B   26065.85467530  .00000044  00000+0  48432-4 0  9992
2 62786  88.9664  94.3204 0018096 106.5883 253.7257 13.50998273 58594
QIANFAN-57              
1 62787U 25016C   26065.81358874  .00000044  00000+0  49582-4 0  9996
2 62787  88.9696  94.5043 0001378 100.8120 259.3187 13.50997180 58555
QIANFAN-58              
1 62788U 25016D   26065.78472233  .00000047  00000+0  53533-4 0  9993
2 62788  88.9665  94.3129 0016032  99.9787 260.3175 13.50998802 58590
QIANFAN-59              
1 62789U 25016E   26065.80956629  .00000050  00000+0  58362-4 0  9992
2 62789  88.9689  94.4040 0016385 103.1865 257.1115 13.50994666 58598
QIANFAN-60              
1 62790U 25016F   26065.84249100  .00000037  00000+0  38624-4 0  9991
2 62790  88.9668  94.3561 0017960 100.2361 260.0816 13.51009374 58587
QIANFAN-61              
1 62791U 25016G   26064.98563812 -.01754025  00000+0 -30903+1 0  9999
2 62791  88.9744  94.6579 0015183 117.5402 242.7291 13.46909473 58483
QIANFAN-62              
1 62792U 25016H   26065.80539446  .00000044  00000+0  49526-4 0  9995
2 62792  88.9684  94.4030 0018252  99.9542 260.3671 13.50996627 58586
QIANFAN-63              
1 62793U 25016J   26065.83011769  .00000037  00000+0  37790-4 0  9994
2 62793  88.9690  94.3576 0018299 104.6517 255.6664 13.50995280 58623
QIANFAN-64              
1 62794U 25016K   26065.79721468  .00000044  00000+0  48924-4 0  9993
2 62794  88.9677  94.3238 0016244  98.4130 261.8864 13.51005618 58611
QIANFAN-65              
1 62795U 25016L   26065.79300388  .00000035  00000+0  35664-4 0  9995
2 62795  88.9673  94.3473 0016091  99.9297 260.3671 13.51008818 58591
QIANFAN-66              
1 62796U 25016M   26065.82182060  .00000034  00000+0  33694-4 0  9995
2 62796  88.9693  94.3308 0017207  96.0944 264.2168 13.50996978 58640
QIANFAN-67              
1 62797U 25016N   26065.82588259  .00000031  00000+0  29788-4 0  9992
2 62797  88.9683  94.3477 0017164 102.1099 258.1977 13.50995349 58617
QIANFAN-68              
1 62798U 25016P   26065.81778487  .00000038  00000+0  39406-4 0  9991
2 62798  88.9687  94.3969 0017226 100.6005 259.7087 13.51005313 58597
