[{"OBJECT_NAME":"QIANFAN-52","OBJECT_ID":"2024-232S","EPOCH":"2026-03-06T19:00:00.376992","MEAN_MOTION":13.51000952,"ECCENTRICITY":0.0014001,"INCLINATION":89.0056,"RA_OF_ASC_NODE":32.6232,"ARG_OF_PERICENTER":316.152,"MEAN_ANOMALY":43.8519,"EPHEMERIS_TYPE":0,"CLASSIFICATION_TYPE":"U","NORAD_CAT_ID":62253,"ELEMENT_SET_NO":999,"REV_AT_EPOCH":7929,"BSTAR":0.00010345,"MEAN_MOTION_DOT":7.9e-7,"MEAN_MOTION_DDOT":0},{"OBJECT_NAME":"QIANFAN-53","OBJECT_ID":"2024-232T","EPOCH":"2026-03-06T20:16:59.054016","MEAN_MOTION":13.51003727,"ECCENTRICITY":0.0012923,"INCLINATION":89.0063,"RA_OF_ASC_NODE":32.7286,"ARG_OF_PERICENTER":317.8026,"MEAN_ANOMALY":42.2129,"EPHEMERIS_TYPE":0,"CLASSIFICATION_TYPE":"U","NORAD_CAT_ID":62254,"ELEMENT_SET_NO":999,"REV_AT_EPOCH":7926,"BSTAR":0.00012033,"MEAN_MOTION_DOT":9.0e-7,"MEAN_MOTION_DDOT":0},{"OBJECT_NAME":"QIANFAN-54","OBJECT_ID":"2024-232U","EPOCH":"2026-03-06T21:16:17.145120","MEAN_MOTION":13.5100315,"ECCENTRICITY":0.0003028,"INCLINATION":89.0055,"RA_OF_ASC_NODE":32.3956,"ARG_OF_PERICENTER":37.4067,"MEAN_ANOMALY":322.7294,"EPHEMERIS_TYPE":0,"CLASSIFICATION_TYPE":"U","NORAD_CAT_ID":62255,"ELEMENT_SET_NO":999,"REV_AT_EPOCH":11077,"BSTAR":0.00011909,"MEAN_MOTION_DOT":8.9e-7,"MEAN_MOTION_DDOT":0},{"OBJECT_NAME":"QIANFAN-55","OBJECT_ID":"2025-016A","EPOCH":"2026-03-06T20:07:09.576192","MEAN_MOTION":13.50996368,"ECCENTRICITY":0.001946,"INCLINATION":88.9691,"RA_OF_ASC_NODE":94.5083,"ARG_OF_PERICENTER":104.5787,"MEAN_ANOMALY":255.7524,"EPHEMERIS_TYPE":0,"CLASSIFICATION_TYPE":"U","NORAD_CAT_ID":62785,"ELEMENT_SET_NO":999,"REV_AT_EPOCH":5854,"BSTAR":4.3538e-5,"MEAN_MOTION_DOT":4.0e-7,"MEAN_MOTION_DDOT":0},{"OBJECT_NAME":"QIANFAN-56","OBJECT_ID":"2025-016B","EPOCH":"2026-03-06T20:30:43.945920","MEAN_MOTION":13.50998273,"ECCENTRICITY":0.0018096,"INCLINATION":88.9664,"RA_OF_ASC_NODE":94.3204,"ARG_OF_PERICENTER":106.5883,"MEAN_ANOMALY":253.7257,"EPHEMERIS_TYPE":0,"CLASSIFICATION_TYPE":"U","NORAD_CAT_ID":62786,"ELEMENT_SET_NO":999,"REV_AT_EPOCH":5859,"BSTAR":4.8432e-5,"MEAN_MOTION_DOT":4.4e-7,"MEAN_MOTION_DDOT":0},{"OBJECT_NAME":"QIANFAN-57","OBJECT_ID":"2025-016C","EPOCH":"2026-03-06T19:31:34.067136","MEAN_MOTION":13.5099718,"ECCENTRICITY":0.0001378,"INCLINATION":88.9696,"RA_OF_ASC_NODE":94.5043,"ARG_OF_PERICENTER":100.812,"MEAN_ANOMALY":259.3187,"EPHEMERIS_TYPE":0,"CLASSIFICATION_TYPE":"U","NORAD_CAT_ID":62787,"ELEMENT_SET_NO":999,"REV_AT_EPOCH":5855,"BSTAR":4.9582e-5,"MEAN_MOTION_DOT":4.4e-7,"MEAN_MOTION_DDOT":0},{"OBJECT_NAME":"QIANFAN-58","OBJECT_ID":"2025-016D","EPOCH":"2026-03-06T18:50:00.009312","MEAN_MOTION":13.50998802,"ECCENTRICITY":0.0016032,"INCLINATION":88.9665,"RA_OF_ASC_NODE":94.3129,"ARG_OF_PERICENTER":99.9787,"MEAN_ANOMALY":260.3175,"EPHEMERIS_TYPE":0,"CLASSIFICATION_TYPE":"U","NORAD_CAT_ID":62788,"ELEMENT_SET_NO":999,"REV_AT_EPOCH":5859,"BSTAR":5.3533e-5,"MEAN_MOTION_DOT":4.7e-7,"MEAN_MOTION_DDOT":0},{"OBJECT_NAME":"QIANFAN-59","OBJECT_ID":"2025-016E","EPOCH":"2026-03-06T19:25:46.527456","MEAN_MOTION":13.50994666,"ECCENTRICITY":0.0016385,"INCLINATION":88.9689,"RA_OF_ASC_NODE":94.404,"ARG_OF_PERICENTER":103.1865,"MEAN_ANOMALY":257.1115,"EPHEMERIS_TYPE":0,"CLASSIFICATION_TYPE":"U","NORAD_CAT_ID":62789,"ELEMENT_SET_NO":999,"REV_AT_EPOCH":5859,"BSTAR":5.8362e-5,"MEAN_MOTION_DOT":5.0e-7,"MEAN_MOTION_DDOT":0},{"OBJECT_NAME":"QIANFAN-60","OBJECT_ID":"2025-016F","EPOCH":"2026-03-06T20:13:11.222400","MEAN_MOTION":13.51009374,"ECCENTRICITY":0.001796,"INCLINATION":88.9668,"RA_OF_ASC_NODE":94.3561,"ARG_OF_PERICENTER":100.2361,"MEAN_ANOMALY":260.0816,"EPHEMERIS_TYPE":0,"CLASSIFICATION_TYPE":"U","NORAD_CAT_ID":62790,"ELEMENT_SET_NO":999,"REV_AT_EPOCH":5858,"BSTAR":3.8624e-5,"MEAN_MOTION_DOT":3.7e-7,"MEAN_MOTION_DDOT":0},{"OBJECT_NAME":"QIANFAN-61","OBJECT_ID":"2025-016G","EPOCH":"2026-03-05T23:39:19.133568","MEAN_MOTION":13.46909473,"ECCENTRICITY":0.0015183,"INCLINATION":88.9744,"RA_OF_ASC_NODE":94.6579,"ARG_OF_PERICENTER":117.5402,"MEAN_ANOMALY":242.7291,"EPHEMERIS_TYPE":0,"CLASSIFICATION_TYPE":"U","NORAD_CAT_ID":62791,"ELEMENT_SET_NO":999,"REV_AT_EPOCH":5848,"BSTAR":-3.0903,"MEAN_MOTION_DOT":-0.01754025,"MEAN_MOTION_DDOT":0},{"OBJECT_NAME":"QIANFAN-62","OBJECT_ID":"2025-016H","EPOCH":"2026-03-06T19:19:46.081344","MEAN_MOTION":13.50996627,"ECCENTRICITY":0.0018252,"INCLINATION":88.9684,"RA_OF_ASC_NODE":94.403,"ARG_OF_PERICENTER":99.9542,"MEAN_ANOMALY":260.3671,"EPHEMERIS_TYPE":0,"CLASSIFICATION_TYPE":"U","NORAD_CAT_ID":62792,"ELEMENT_SET_NO":999,"REV_AT_EPOCH":5858,"BSTAR":4.9526e-5,"MEAN_MOTION_DOT":4.4e-7,"MEAN_MOTION_DDOT":0},{"OBJECT_NAME":"QIANFAN-63","OBJECT_ID":"2025-016J","EPOCH":"2026-03-06T19:55:22.168416","MEAN_MOTION":13.5099528,"ECCENTRICITY":0.0018299,"INCLINATION":88.969,"RA_OF_ASC_NODE":94.3576,"ARG_OF_PERICENTER":104.6517,"MEAN_ANOMALY":255.6664,"EPHEMERIS_TYPE":0,"CLASSIFICATION_TYPE":"U","NORAD_CAT_ID":62793,"ELEMENT_SET_NO":999,"REV_AT_EPOCH":5862,"BSTAR":3.779e-5,"MEAN_MOTION_DOT":3.7e-7,"MEAN_MOTION_DDOT":0},{"OBJECT_NAME":"QIANFAN-64","OBJECT_ID":"2025-016K","EPOCH":"2026-03-06T19:07:59.348352","MEAN_MOTION":13.51005618,"ECCENTRICITY":0.0016244,"INCLINATION":88.9677,"RA_OF_ASC_NODE":94.3238,"ARG_OF_PERICENTER":98.413,"MEAN_ANOMALY":261.8864,"EPHEMERIS_TYPE":0,"CLASSIFICATION_TYPE":"U","NORAD_CAT_ID":62794,"ELEMENT_SET_NO":999,"REV_AT_EPOCH":5861,"BSTAR":4.8924e-5,"MEAN_MOTION_DOT":4.4e-7,"MEAN_MOTION_DDOT":0},{"OBJECT_NAME":"QIANFAN-65","OBJECT_ID":"2025-016L","EPOCH":"2026-03-06T19:01:55.535232","MEAN_MOTION":13.51008818,"ECCENTRICITY":0.0016091,"INCLINATION":88.9673,"RA_OF_ASC_NODE":94.3473,"ARG_OF_PERICENTER":99.9297,"MEAN_ANOMALY":260.3671,"EPHEMERIS_TYPE":0,"CLASSIFICATION_TYPE":"U","NORAD_CAT_ID":62795,"ELEMENT_SET_NO":999,"REV_AT_EPOCH":5859,"BSTAR":3.5664e-5,"MEAN_MOTION_DOT":3.5e-7,"MEAN_MOTION_DDOT":0},{"OBJECT_NAME":"QIANFAN-66","OBJECT_ID":"2025-016M","EPOCH":"2026-03-06T19:43:25.299840","MEAN_MOTION":13.50996978,"ECCENTRICITY":0.0017207,"INCLINATION":88.9693,"RA_OF_ASC_NODE":94.3308,"ARG_OF_PERICENTER":96.0944,"MEAN_ANOMALY":264.2168,"EPHEMERIS_TYPE":0,"CLASSIFICATION_TYPE":"U","NORAD_CAT_ID":62796,"ELEMENT_SET_NO":999,"REV_AT_EPOCH":5864,"BSTAR":3.3694e-5,"MEAN_MOTION_DOT":3.4e-7,"MEAN_MOTION_DDOT":0},{"OBJECT_NAME":"QIANFAN-67","OBJECT_ID":"2025-016N","EPOCH":"2026-03-06T19:49:16.255776","MEAN_MOTION":13.50995349,"ECCENTRICITY":0.0017164,"INCLINATION":88.9683,"RA_OF_ASC_NODE":94.3477,"ARG_OF_PERICENTER":102.1099,"MEAN_ANOMALY":258.1977,"EPHEMERIS_TYPE":0,"CLASSIFICATION_TYPE":"U","NORAD_CAT_ID":62797,"ELEMENT_SET_NO":999,"REV_AT_EPOCH":5861,"BSTAR":2.9788e-5,"MEAN_MOTION_DOT":3.1e-7,"MEAN_MOTION_DDOT":0},{"OBJECT_NAME":"QIANFAN-68","OBJECT_ID":"2025-016P","EPOCH":"2026-03-06T19:37:36.612768","MEAN_MOTION":13.51005313,"ECCENTRICITY":0.0017226,"INCLINATION":88.9687,"RA_OF_ASC_NODE":94.3969,"ARG_OF_PERICENTER":100.6005,"MEAN_ANOMALY":259.7087,"EPHEMERIS_TYPE":0,"CLASSIFICATION_TYPE":"U","NORAD_CAT_ID":62798,"ELEMENT_SET_NO":999,"REV_AT_EPOCH":5859,"BSTAR":3.9406e-5,"MEAN_MOTION_DOT":3.8e-7,"MEAN_MOTION_DDOT":0}]
